CTC2_L_00557016-05
1 86891U 24170HW  26037.47798611  .00000000  00000+0  00000-0 0  9996
2 86891  98.9000 180.0000 0000000   0.0000 270.0000 14.06899548    13
CTC2_L_00557016-06
1 86892U 25743FL  26037.47798611  .00000000  00000+0  00000-0 0  9994
2 86892  98.9000 180.0000 0000000   0.0000 315.0000 14.06899548    14
CTC2_L_00557016-07
1 86893U 22058YF  26037.47798611  .00000000  00000+0  00000-0 0  9991
2 86893  98.9000 180.0000 0000000   0.0000   0.0000 14.06899548    16
CTC2_L_00557016-08
1 86894U 24054JZ  26037.47798611  .00000000  00000+0  00000-0 0  9990
2 86894  98.9000 180.0000 0000000   0.0000  45.0000 14.06899548    16
CTC2_L_00557017-01
1 86895U 26912QX  26037.47798611  .00000000  00000+0  00000-0 0  9996
2 86895  98.9000 192.0000 0000000   0.0000  96.0000 14.06899548    16
CTC2_L_00557017-02
1 86896U 22103OY  26037.47798611  .00000000  00000+0  00000-0 0  9995
2 86896  98.9000 192.0000 0000000   0.0000 141.0000 14.06899548    18
CTC2_L_00557017-03
1 86897U 22083SH  26037.47798611  .00000000  00000+0  00000-0 0  9993
2 86897  98.9000 192.0000 0000000   0.0000 186.0000 14.06899548    18
CTC2_L_00557017-04
1 86898U 22383NS  26037.47798611  .00000000  00000+0  00000-0 0  9997
2 86898  98.9000 192.0000 0000000   0.0000 231.0000 14.06899548    10
CTC2_L_00557017-05
1 86899U 26905UV  26037.47798611  .00000000  00000+0  00000-0 0  9992
2 86899  98.9000 192.0000 0000000   0.0000 276.0000 14.06899548    10
CTC2_L_00557017-06
1 86900U 23550AY  26037.47798611  .00000000  00000+0  00000-0 0  9998
2 86900  98.9000 192.0000 0000000   0.0000 321.0000 14.06899548    14
CTC2_L_00557017-07
1 86901U 22040HB  26037.47798611  .00000000  00000+0  00000-0 0  9992
2 86901  98.9000 192.0000 0000000   0.0000   6.0000 14.06899548    15
CTC2_L_00557017-08
1 86902U 23479AS  26037.47798611  .00000000  00000+0  00000-0 0  9990
2 86902  98.9000 192.0000 0000000   0.0000  51.0000 14.06899548    16
CTC2_L_00557018-01
1 86903U 25715KJ  26037.47798611  .00000000  00000+0  00000-0 0  9996
2 86903  98.9000 204.0000 0000000   0.0000 102.0000 14.06899548    18
CTC2_L_00557018-02
1 86904U 24166MR  26037.47798611  .00000000  00000+0  00000-0 0  9996
2 86904  98.9000 204.0000 0000000   0.0000 147.0000 14.06899548    18
CTC2_L_00557018-03
1 86905U 25782LA  26037.47798611  .00000000  00000+0  00000-0 0  9992
2 86905  98.9000 204.0000 0000000   0.0000 192.0000 14.06899548    19
CTC2_L_00557018-04
1 86906U 25522AO  26037.47798611  .00000000  00000+0  00000-0 0  9995
2 86906  98.9000 204.0000 0000000   0.0000 237.0000 14.06899548    10
CTC2_L_00557018-05
1 86907U 26243QR  26037.47798611  .00000000  00000+0  00000-0 0  9997
2 86907  98.9000 204.0000 0000000   0.0000 282.0000 14.06899548    11
CTC2_L_00557018-06
1 86908U 25247BV  26037.47798611  .00000000  00000+0  00000-0 0  9991
2 86908  98.9000 204.0000 0000000   0.0000 327.0000 14.06899548    12
CTC2_L_00557018-07
1 86909U 26744FI  26037.47798611  .00000000  00000+0  00000-0 0  9995
2 86909  98.9000 204.0000 0000000   0.0000  12.0000 14.06899548    14
CTC2_L_00557018-08
1 86910U 25417OD  26037.47798611  .00000000  00000+0  00000-0 0  9993
2 86910  98.9000 204.0000 0000000   0.0000  57.0000 14.06899548    15
CTC2_L_00557019-01
1 86911U 23835EJ  26037.47798611  .00000000  00000+0  00000-0 0  9996
2 86911  98.9000 216.0000 0000000   0.0000 108.0000 14.06899548    16
CTC2_L_00557019-02
1 86912U 26863HZ  26037.47798611  .00000000  00000+0  00000-0 0  9991
2 86912  98.9000 216.0000 0000000   0.0000 153.0000 14.06899548    17
CTC2_L_00557019-03
1 86913U 24245NV  26037.47798611  .00000000  00000+0  00000-0 0  9994
2 86913  98.9000 216.0000 0000000   0.0000 198.0000 14.06899548    17
CTC2_L_00557019-04
1 86914U 23717MT  26037.47798611  .00000000  00000+0  00000-0 0  9998
2 86914  98.9000 216.0000 0000000   0.0000 243.0000 14.06899548    19
CTC2_L_00557019-05
1 86915U 22570UN  26037.47798611  .00000000  00000+0  00000-0 0  9995
2 86915  98.9000 216.0000 0000000   0.0000 288.0000 14.06899548    19
CTC2_L_00557019-06
1 86916U 22803PP  26037.47798611  .00000000  00000+0  00000-0 0  9995
2 86916  98.9000 216.0000 0000000   0.0000 333.0000 14.06899548    11
CTC2_L_00557019-07
1 86917U 26593EZ  26037.47798611  .00000000  00000+0  00000-0 0  9996
2 86917  98.9000 216.0000 0000000   0.0000  18.0000 14.06899548    12
CTC2_L_00557019-08
1 86918U 24111UE  26037.47798611  .00000000  00000+0  00000-0 0  9991
2 86918  98.9000 216.0000 0000000   0.0000  63.0000 14.06899548    13
CTC2_L_00557020-01
1 86919U 22098RE  26037.47798611  .00000000  00000+0  00000-0 0  9994
2 86919  98.9000 228.0000 0000000   0.0000 114.0000 14.06899548    14
CTC2_L_00557020-02
1 86920U 24448TM  26037.47798611  .00000000  00000+0  00000-0 0  9997
2 86920  98.9000 228.0000 0000000   0.0000 159.0000 14.06899548    15
CTC2_L_00557020-03
1 86921U 22398QG  26037.47798611  .00000000  00000+0  00000-0 0  9990
2 86921  98.9000 228.0000 0000000   0.0000 204.0000 14.06899548    17
CTC2_L_00557020-04
1 86922U 24281MW  26037.47798611  .00000000  00000+0  00000-0 0  9994
2 86922  98.9000 228.0000 0000000   0.0000 249.0000 14.06899548    17
CTC2_L_00557020-05
1 86923U 24269GU  26037.47798611  .00000000  00000+0  00000-0 0  9991
2 86923  98.9000 228.0000 0000000   0.0000 294.0000 14.06899548    18
CTC2_L_00557020-06
1 86924U 24659UD  26037.47798611  .00000000  00000+0  00000-0 0  9995
2 86924  98.9000 228.0000 0000000   0.0000 339.0000 14.06899548    19
CTC2_L_00557020-07
1 86925U 24729PV  26037.47798611  .00000000  00000+0  00000-0 0  9994
2 86925  98.9000 228.0000 0000000   0.0000  24.0000 14.06899548    11
CTC2_L_00557020-08
1 86926U 25233RJ  26037.47798611  .00000000  00000+0  00000-0 0  9996
2 86926  98.9000 228.0000 0000000   0.0000  69.0000 14.06899548    11
CTC2_L_00557021-01
1 86927U 24073YC  26037.47798611  .00000000  00000+0  00000-0 0  9998
2 86927  98.9000 240.0000 0000000   0.0000 120.0000 14.06899548    14
CTC2_L_00557021-02
1 86928U 26278ET  26037.47798611  .00000000  00000+0  00000-0 0  9998
2 86928  98.9000 240.0000 0000000   0.0000 165.0000 14.06899548    14
CTC2_L_00557021-03
1 86929U 26027EL  26037.47798611  .00000000  00000+0  00000-0 0  9991
2 86929  98.9000 240.0000 0000000   0.0000 210.0000 14.06899548    16
CTC2_L_00557021-04
1 86930U 23039BZ  26037.47798611  .00000000  00000+0  00000-0 0  9993
2 86930  98.9000 240.0000 0000000   0.0000 255.0000 14.06899548    17
CTC2_L_00557021-05
1 86931U 24961AO  26037.47798611  .00000000  00000+0  00000-0 0  9999
2 86931  98.9000 240.0000 0000000   0.0000 300.0000 14.06899548    19
CTC2_L_00557021-06
1 86932U 23815XM  26037.47798611  .00000000  00000+0  00000-0 0  9997
2 86932  98.9000 240.0000 0000000   0.0000 345.0000 14.06899548    19
CTC2_L_00557021-07
1 86933U 22261JU  26037.47798611  .00000000  00000+0  00000-0 0  9992
2 86933  98.9000 240.0000 0000000   0.0000  30.0000 14.06899548    11
CTC2_L_00557021-08
1 86934U 22954DJ  26037.47798611  .00000000  00000+0  00000-0 0  9992
2 86934  98.9000 240.0000 0000000   0.0000  75.0000 14.06899548    11
CTC2_L_00557022-01
1 86935U 25290WT  26037.47798611  .00000000  00000+0  00000-0 0  9999
2 86935  98.9000 252.0000 0000000   0.0000 126.0000 14.06899548    12
CTC2_L_00557022-02
1 86936U 24878AE  26037.47798611  .00000000  00000+0  00000-0 0  9991
2 86936  98.9000 252.0000 0000000   0.0000 171.0000 14.06899548    13
CTC2_L_00557022-03
1 86937U 26965DN  26037.47798611  .00000000  00000+0  00000-0 0  9991
2 86937  98.9000 252.0000 0000000   0.0000 216.0000 14.06899548    14
CTC2_L_00557022-04
1 86938U 24256LU  26037.47798611  .00000000  00000+0  00000-0 0  9993
2 86938  98.9000 252.0000 0000000   0.0000 261.0000 14.06899548    15
CTC2_L_00557022-05
1 86939U 25197RA  26037.47798611  .00000000  00000+0  00000-0 0  9999
2 86939  98.9000 252.0000 0000000   0.0000 306.0000 14.06899548    16
CTC2_L_00557022-06
1 86940U 25235OJ  26037.47798611  .00000000  00000+0  00000-0 0  9994
2 86940  98.9000 252.0000 0000000   0.0000 351.0000 14.06899548    18
CTC2_L_00557022-07
1 86941U 26203PO  26037.47798611  .00000000  00000+0  00000-0 0  9991
2 86941  98.9000 252.0000 0000000   0.0000  36.0000 14.06899548    19
CTC2_L_00557022-08
1 86942U 25387SY  26037.47798611  .00000000  00000+0  00000-0 0  9994
2 86942  98.9000 252.0000 0000000   0.0000  81.0000 14.06899548    10
CTC2_L_00557023-01
1 86943U 26852CS  26037.47798611  .00000000  00000+0  00000-0 0  9993
2 86943  98.9000 264.0000 0000000   0.0000 132.0000 14.06899548    11
CTC2_L_00557023-02
1 86944U 22617CO  26037.47798611  .00000000  00000+0  00000-0 0  9999
2 86944  98.9000 264.0000 0000000   0.0000 177.0000 14.06899548    11
CTC2_L_00557023-03
1 86945U 22367KI  26037.47798611  .00000000  00000+0  00000-0 0  9992
2 86945  98.9000 264.0000 0000000   0.0000 222.0000 14.06899548    13
CTC2_L_00557023-04
1 86946U 22279SC  26037.47798611  .00000000  00000+0  00000-0 0  9995
2 86946  98.9000 264.0000 0000000   0.0000 267.0000 14.06899548    13
CTC2_L_00557023-05
1 86947U 24850LS  26037.47798611  .00000000  00000+0  00000-0 0  9993
2 86947  98.9000 264.0000 0000000   0.0000 312.0000 14.06899548    15
CTC2_L_00557023-06
1 86948U 25949WR  26037.47798611  .00000000  00000+0  00000-0 0  9994
2 86948  98.9000 264.0000 0000000   0.0000 357.0000 14.06899548    15
CTC2_L_00557023-07
1 86949U 25015ZO  26037.47798611  .00000000  00000+0  00000-0 0  9999
2 86949  98.9000 264.0000 0000000   0.0000  42.0000 14.06899548    17
CTC2_L_00557023-08
1 86950U 23820OC  26037.47798611  .00000000  00000+0  00000-0 0  9993
2 86950  98.9000 264.0000 0000000   0.0000  87.0000 14.06899548    18
CTC2_L_00557024-01
1 86951U 25021LV  26037.47798611  .00000000  00000+0  00000-0 0  9999
2 86951  98.9000 276.0000 0000000   0.0000 138.0000 14.06899548    19
CTC2_L_00557024-02
1 86952U 24862SL  26037.47798611  .00000000  00000+0  00000-0 0  9992
2 86952  98.9000 276.0000 0000000   0.0000 183.0000 14.06899548    10
